#dP2024  1 17  0  0  0.00000000      97 __u+U IGS20 FIT  IAC
## 2297 259200.00000000   900.00000000 60326 0.0000000000000
+  119   C06C07C08C09C10C11C12C13C14C16C19C20C21C22C23C24C25
+        C26C27C28C29C30C32C33C34C35C36C37C38C39C40C41C42C43
+        C44C45C46E02E03E04E05E07E08E09E10E11E12E13E14E15E18
+        E19E21E24E25E26E27E30E31E33E34E36G01G02G03G04G05G06
+        G07G08G09G10G11G12G13G14G15G16G17G18G19G20G21G22G23
+        G24G25G26G28G29G30G31G32J02J03J04R01R02R03R04R05R07
+        R08R09R11R12R13R14R15R16R17R18R19R20R21R22R24R25R26
++         7  7  7  7  7  7  7  7  6  7  6  5  6  5  6  6  5
++         6  6  6  6  6  6  6  5  6  6  7  6  6  6  6  6  6
++         6  6  7  4  4  4  4  4  4  4  4  4  4  4  4  4  4
++         4  4  4  4  4  4  4  4  4  5  4  3  3  3  4  4  3
++         4  4  4  3  3  3  3  4  4  4  3  3  3  4  4  3  3
++         3  3  4  3  4  4  4  3  9  9  9  7  6  6  6  6  6
++         7  7  8  7  7  6  6  7  6  6  8  8  7  6  6  8  8
%c M  cc GPS ccc cccc cccc cccc cccc ccccc ccccc ccccc ccccc
%c cc cc ccc ccc cccc cccc cccc cccc ccccc ccccc ccccc ccccc
%f  1.2500000  1.025000000  0.00000000000  0.000000000000000
%f  0.0000000  0.000000000  0.00000000000  0.000000000000000
%i    0    0    0    0      0      0      0      0         0
%i    0    0    0    0      0      0      0      0         0
/* INFORMATION & ANALYSIS CENTER (IAC)            FINAL DATA
/* S/V CLOCKS ARE ALIGNED TO GNSS TIME                      
/* G:C1WC2W R:C1PC2P E:C1XC5X C:C2IC6I J:C1CC2S             
/* PCV:IGS20_2290 OL/AL:FES2004  NONE     YN ORB:CoN CLK:CoN
*  2024 01 17  0  0  0.00000000
PC06  -1818.769512  32042.697411  27527.104299     52.392336
PC07 -14003.558320  28162.983353 -28057.822583   -649.110814
PC08 -13852.760783  39435.565562   4487.788429    107.482272
PC09   5975.985025  36861.281470  20586.239086   -362.450150
PC10  -7145.070375  28373.290495 -30152.120575    123.171784
PC11 -18054.010149 -20181.271320   6838.736829    361.799435
PC12  -1402.422156 -18609.554514  20791.490685    794.431349
PC13  -7978.286474  39725.384931  11332.595945    408.180583
PC14 -11480.755696 -11717.667289 -22567.778301    -17.482207
PC16  -1941.211140  31539.317238  28332.307923   -285.556021
PC19  19832.992168   5310.136403  18916.348693   -937.072787
PC20   2991.037591  15605.800643  22954.123751    -72.249729
PC21  17249.224729 -17343.065098 -13398.895320   -964.121681
PC22  26264.706794  -8632.278863   3712.534633   -145.044866
PC23 -16496.685465   5597.115821  21793.308209   -789.578812
PC24  -1403.803328 -27190.698779   6164.160555    796.368708
PC25 -13193.030195 -14305.874924  19993.016129    303.550513
PC26   9768.661723 -23958.602666 -10523.404871   -235.731737
PC27  -7531.089177  14269.134011 -22785.461152    257.763615
PC28 -20757.749355    675.356601 -18630.164855    195.585415
PC29  23566.512505  14849.601171   1733.452121    229.131812
PC30  10676.000984  20633.147421 -15482.947228    -15.817737
PC32 -17192.059654  17489.194764  13340.800996   -554.619659
PC33 -19827.283106  -5241.131544 -18926.252147   -943.440324
PC34 -12028.987193 -20680.457524  14337.142785    348.721325
PC35  20805.879168  -1447.637679  18551.178589    455.631512
PC36  12589.427477  15207.061689 -19706.231019    -50.011015
PC37 -10575.131689  23365.466066  10966.290682   -932.061787
PC38 -17352.967000  38125.204911  -3978.148889    130.916066
PC39  -7108.643247  26572.009152  32061.866627     -6.672467
PC40 -21059.488530  21741.131219 -29459.841640    -52.387868
PC41 -26283.593649   8255.953181  -4419.292885   -880.348813
PC42  -1311.421471 -16203.444500 -22634.723633   -464.920293
PC43 -23244.276344 -15394.957396   -853.018271     56.691594
PC44   7276.202628 -14515.892971  22683.059709    355.961517
PC45  16384.849454  -6003.954247 -21793.501505    -63.587525
PC46   2021.502959  26874.293813  -7169.053043   -116.210327
PE02  15360.514656   7599.361129 -24146.924973     95.635148
PE03  26221.882597  10631.071360   8677.475001    -87.476207
PE04 -27749.855831   2369.311672  10025.486377   -305.297056
PE05   9453.631424  17283.768458  22094.526752   4711.009923
PE07  13409.702273 -13700.970791 -22548.728105    -98.772335
PE08  27976.969991  -1879.185316  -9476.892696   -209.111172
PE09 -13522.682404  13522.612209  22595.138538   -302.095272
PE10 -11760.611037  12666.150276 -24027.827088   -594.691809
PE11  -5066.029508  22030.387796 -19119.872621   3279.292550
PE12 -16102.851528   2501.135604 -24704.522482   -865.821764
PE13   5491.670525 -21480.950487  19616.701562    -19.923909
PE14  18236.299703  -7251.645326  13032.538939     12.562482
PE15  16229.032898  -1854.585564  24698.528965    -80.573766
PE18 -25463.183976   9309.080549 -17676.526939    219.025214
PE19 -24868.789958 -11904.332127 -10756.171250   -798.943302
PE21    503.235766 -21935.760375  19864.153295   -574.245571
PE24 -17065.885846  23925.419817  -3434.320929   -546.013902
PE25   -839.816605  22113.213681 -19655.561151     -0.418198
PE26  -8665.049000 -28192.861595   2502.228343    341.363554
PE27  16765.566088 -24104.377048   3811.602227   -251.140848
PE30  23018.155553 -11712.720846 -14495.914959   -830.297465
PE31 -22949.297205  12033.055806  14299.056238    -13.924452
PE33 -17162.328729 -19055.978160 -14774.271632      6.067461
PE34  17335.968999  18528.213715  15241.854011    -89.385837
PE36   8298.056274  28245.419250  -3131.101069   -172.817795
PG01  14957.511667   -295.005700  21639.800647    166.311340
PG02  17777.086876   6405.294053  19265.773729   -499.815750
PG03  19569.253552  -6445.513241  16555.593218    130.997081
PG04  25921.799169    867.917722  -6030.415391    267.904411
PG05 -14809.560343  -4980.823815 -21666.587193   -158.232674
PG06  -5567.939972 -25377.134659   5310.213573    442.172291
PG07   8980.422383 -15154.580892 -19248.862653    -39.069607
PG08  26062.302491   5500.199753  -2963.639373   -162.436572
PG09  19291.730294  -8787.165885 -16124.014623     61.164109
PG10  -8282.789634  22356.408196  11553.147706    -69.617643
PG11 -11921.377512 -22954.198829  -6122.604937   -542.483320
PG12 -20171.418195   5025.622938  16207.356578   -468.596804
PG13 -20539.028441 -13715.680973 -10260.602147    616.555133
PG14  11742.623670 -22364.304431   7922.998928    300.593342
PG15 -26304.338406  -3048.741061  -3682.374248    117.970302
PG16   9748.415128  11895.305800 -21961.369828   -382.669759
PG17   6409.897493 -14019.542406  22070.546096    719.700497
PG18  -7963.857126  16421.623220 -19213.249040   -533.799824
PG19  -4461.821591 -15902.737598  20689.480561    427.543229
PG20  -5945.959780 -17366.043450 -19197.552598    391.173449
PG21  18362.120597  11622.443001  16391.808278    138.166632
PG22   6305.107327 -21415.902449  15040.354425     47.033154
PG23 -16496.623576  20672.210031   -691.285353    136.793013
PG24 -18252.731050  -8181.235820  17262.871233   -415.147771
PG25 -19573.139776  15753.295698   7835.987822    485.503701
PG26   2546.927585  19504.181116 -17822.375625    199.647111
PG28   4434.080138  24949.048729   7940.818703   -100.933069
PG29 -20793.933393   5872.644192 -15559.684496   -608.589114
PG30   1376.953506 -23062.404707 -12739.416657   -444.563198
PG31   9770.040611  24424.951862  -1467.341636   -227.348831
PG32  -1477.241131  15238.356807  21901.557032   -605.585385
PJ02 -35743.620248  22482.555663   4884.134534     -1.223710
PJ03 -19749.493391  22974.415250 -24649.981864     -0.165199
PJ04 -26282.450402  32177.910964  13901.702134     77.107607
PR01  -2238.928931 -10735.199448 -23027.707165     74.742593
PR02 -18902.931997  -3742.988758 -16627.349552    -22.406126
PR03 -24870.010863   5474.340250   -627.844200     92.823178
PR04 -17139.400948  11087.309773  15314.202783    219.561179
PR05   -166.749027  10958.542310  23044.116808    125.446487
PR07  24870.274085  -5798.828634   -112.226281     73.714631
PR08  16952.193970 -11291.464141 -15319.877814    -74.058953
PR09   8282.612339  10588.709781 -21680.584263    164.754431
PR11  10663.717284 -21302.446462  -9094.786794     37.374868
PR12   1827.917718 -23330.347040  10188.430290     35.679567
PR13  -6837.713159 -12804.849756  20955.084290    -43.368523
PR14 -12738.787073   7916.063424  20641.707191     25.948829
PR15 -10427.248661  21971.257613   7710.629574     83.034472
PR16  -1941.699034  23437.917854  -9914.574993     22.503935
PR17 -15845.622679  -3965.186996 -19591.283675     53.000548
PR18  -4779.515551  10116.314153 -22907.300289    122.488355
PR19   6849.845017  18864.446052 -15738.456327   -262.333757
PR20  17710.257422  17862.336705   4392.010070   -106.867738
PR21  15544.666617   3727.787040  19876.087717    -69.500357
PR22   4624.108614 -11002.991020  22572.462326    103.496856
PR24 -18569.422957 -16799.657958  -4868.376868    -40.174684
PR25  15800.298349   4315.421682  19558.383158     41.812106
PR26  17485.557505 -11256.916285 -14736.410047   -203.147099
EOF
